[Satellite]
VERSION=1.1
NAME=CZ-6A DEB
NICKNAME=CZ-6A DEB
TLE1=1 54432U 22151FG  22341.94381727  .00004366  00000+0  28937-2 0  9991
TLE2=2 54432  98.9750 346.8111 0206785 310.8269  47.5120 13.92113631  3382
STATUS=0
